{
  "type": "FeatureCollection",
  "features": [
    {
      "type": "Feature",
      "id": "A1",
      "properties": {
        "island_id": "A1",
        "name": "Aster"
      },
      "geometry": {
        "type": "Polygon",
        "coordinates": [
          [
            [
              119.94,
              14.055
            ],
            [
              120.16,
              14.055
            ],
            [
              120.16,
              14.245000000000001
            ],
            [
              119.94,
              14.245000000000001
            ],
            [
              119.94,
              14.055
            ]
          ]
        ]
      }
    },
    {
      "type": "Feature",
      "id": "B2",
      "properties": {
        "island_id": "B2",
        "name": "Beryl"
      },
      "geometry": {
        "type": "Polygon",
        "coordinates": [
          [
            [
              120.298,
              14.254999999999999
            ],
            [
              120.542,
              14.254999999999999
            ],
            [
              120.542,
              14.465
            ],
            [
              120.298,
              14.465
            ],
            [
              120.298,
              14.254999999999999
            ]
          ]
        ]
      }
    },
    {
      "type": "Feature",
      "id": "C3",
      "properties": {
        "island_id": "C3",
        "name": "Cobalt"
      },
      "geometry": {
        "type": "Polygon",
        "coordinates": [
          [
            [
              120.646,
              13.995
            ],
            [
              120.914,
              13.995
            ],
            [
              120.914,
              14.165000000000001
            ],
            [
              120.646,
              14.165000000000001
            ],
            [
              120.646,
              13.995
            ]
          ]
        ]
      }
    },
    {
      "type": "Feature",
      "id": "D4",
      "properties": {
        "island_id": "D4",
        "name": "Drift"
      },
      "geometry": {
        "type": "Polygon",
        "coordinates": [
          [
            [
              120.97,
              14.325
            ],
            [
              121.19,
              14.325
            ],
            [
              121.19,
              14.515
            ],
            [
              120.97,
              14.515
            ],
            [
              120.97,
              14.325
            ]
          ]
        ]
      }
    },
    {
      "type": "Feature",
      "id": "E5",
      "properties": {
        "island_id": "E5",
        "name": "Ember"
      },
      "geometry": {
        "type": "Polygon",
        "coordinates": [
          [
            [
              120.158,
              13.674999999999999
            ],
            [
              120.402,
              13.674999999999999
            ],
            [
              120.402,
              13.885
            ],
            [
              120.158,
              13.885
            ],
            [
              120.158,
              13.674999999999999
            ]
          ]
        ]
      }
    },
    {
      "type": "Feature",
      "id": "F6",
      "properties": {
        "island_id": "F6",
        "name": "Fjord"
      },
      "geometry": {
        "type": "Polygon",
        "coordinates": [
          [
            [
              120.526,
              13.575
            ],
            [
              120.794,
              13.575
            ],
            [
              120.794,
              13.745000000000001
            ],
            [
              120.526,
              13.745000000000001
            ],
            [
              120.526,
              13.575
            ]
          ]
        ]
      }
    },
    {
      "type": "Feature",
      "id": "G7",
      "properties": {
        "island_id": "G7",
        "name": "Gale"
      },
      "geometry": {
        "type": "Polygon",
        "coordinates": [
          [
            [
              120.91,
              13.785
            ],
            [
              121.13,
              13.785
            ],
            [
              121.13,
              13.975000000000001
            ],
            [
              120.91,
              13.975000000000001
            ],
            [
              120.91,
              13.785
            ]
          ]
        ]
      }
    },
    {
      "type": "Feature",
      "id": "H8",
      "properties": {
        "island_id": "H8",
        "name": "Haven"
      },
      "geometry": {
        "type": "Polygon",
        "coordinates": [
          [
            [
              121.198,
              14.035
            ],
            [
              121.442,
              14.035
            ],
            [
              121.442,
              14.245000000000001
            ],
            [
              121.198,
              14.245000000000001
            ],
            [
              121.198,
              14.035
            ]
          ]
        ]
      }
    }
  ]
}
